{
    "links": {
        "self": "http://www.neowsapp.com/rest/v1/neo/3647698?api_key=iIulBulltgU6a56xZRHN4H3l9WmuAYTsLGpBGhQ2"
    },
    "id": "3647698",
    "neo_reference_id": "3647698",
    "name": "(2013 RE32)",
    "designation": "2013 RE32",
    "nasa_jpl_url": "http://ssd.jpl.nasa.gov/sbdb.cgi?sstr=3647698",
    "absolute_magnitude_h": 24.6,
    "estimated_diameter": {
        "kilometers": {
            "estimated_diameter_min": 0.0319561887,
            "estimated_diameter_max": 0.0714562102
        },
        "meters": {
            "estimated_diameter_min": 31.9561886721,
            "estimated_diameter_max": 71.4562101727
        },
        "miles": {
            "estimated_diameter_min": 0.0198566489,
            "estimated_diameter_max": 0.0444008168
        },
        "feet": {
            "estimated_diameter_min": 104.8431420431,
            "estimated_diameter_max": 234.436392583
        }
    },
    "is_potentially_hazardous_asteroid": false,
    "close_approach_data": [
        {
            "close_approach_date": "2013-09-02",
            "close_approach_date_full": "2013-Sep-02 11:13",
            "epoch_date_close_approach": 1378120380000,
            "relative_velocity": {
                "kilometers_per_second": "9.8082078196",
                "kilometers_per_hour": "35309.5481504617",
                "miles_per_hour": "21939.9800716022"
            },
            "miss_distance": {
                "astronomical": "0.0056130043",
                "lunar": "2.1834586727",
                "kilometers": "839693.487580841",
                "miles": "521761.3387879658"
            },
            "orbiting_body": "Earth"
        },
        {
            "close_approach_date": "2013-09-02",
            "close_approach_date_full": "2013-Sep-02 11:39",
            "epoch_date_close_approach": 1378121940000,
            "relative_velocity": {
                "kilometers_per_second": "10.6585230311",
                "kilometers_per_hour": "38370.6829118365",
                "miles_per_hour": "23842.0501681909"
            },
            "miss_distance": {
                "astronomical": "0.0082783544",
                "lunar": "3.2202798616",
                "kilometers": "1238424.185345128",
                "miles": "769521.1056056464"
            },
            "orbiting_body": "Moon"
        },
        {
            "close_approach_date": "2015-07-22",
            "close_approach_date_full": "2015-Jul-22 22:05",
            "epoch_date_close_approach": 1437602700000,
            "relative_velocity": {
                "kilometers_per_second": "3.6801906482",
                "kilometers_per_hour": "13248.6863336033",
                "miles_per_hour": "8232.2184610103"
            },
            "miss_distance": {
                "astronomical": "1.5088503734",
                "lunar": "586.9427952526",
                "kilometers": "225720802.009344658",
                "miles": "140256402.5927979604"
            },
            "orbiting_body": "Juptr"
        },
        {
            "close_approach_date": "2017-06-25",
            "close_approach_date_full": "2017-Jun-25 14:31",
            "epoch_date_close_approach": 1498401060000,
            "relative_velocity": {
                "kilometers_per_second": "18.3571118815",
                "kilometers_per_hour": "66085.602773459",
                "miles_per_hour": "41063.023567764"
            },
            "miss_distance": {
                "astronomical": "0.3485629677",
                "lunar": "135.5909944353",
                "kilometers": "52144277.528798799",
                "miles": "32400951.6043054662"
            },
            "orbiting_body": "Earth"
        }
    ],
    "orbital_data": {
        "orbit_id": "8",
        "orbit_determination_date": "2017-04-06 08:44:47",
        "first_observation_date": "2013-09-06",
        "last_observation_date": "2013-10-08",
        "data_arc_in_days": 32,
        "observations_used": 95,
        "orbit_uncertainty": "7",
        "minimum_orbit_intersection": ".00926158",
        "jupiter_tisserand_invariant": "3.200",
        "epoch_osculation": "2459000.5",
        "eccentricity": ".5930080387112194",
        "semi_major_axis": "2.480001363303205",
        "inclination": "7.827306587966848",
        "ascending_node_longitude": "338.9936937218836",
        "orbital_period": "1426.51488022825",
        "perihelion_distance": "1.009340618849621",
        "perihelion_argument": "346.4991132713203",
        "aphelion_distance": "3.950662107756789",
        "perihelion_time": "2459386.007843489718",
        "mean_anomaly": "262.7119691635518",
        "mean_motion": ".2523632981258478",
        "equinox": "J2000",
        "orbit_class": {
            "orbit_class_type": "APO",
            "orbit_class_description": "Near-Earth asteroid orbits which cross the Earth’s orbit similar to that of 1862 Apollo",
            "orbit_class_range": "a (semi-major axis) > 1.0 AU; q (perihelion) < 1.017 AU"
        }
    },
    "is_sentry_object": false
}